OBJECT B                
1 57425U 23104B   26064.65757792  .00299771  36746-4  81160-3 0  9993
2 57425  97.2682 153.1541 0002827 314.1556  45.9486 15.94251406147435
INTUITION-1             
1 58565U 23174CW  26064.57382654  .00442822  77404-4  13597-2 0  9999
2 58565  97.3762 160.6148 0003605 234.8941 125.1995 15.91825053130225
OBJECT B                
1 59678U 24085B   26064.42588206  .00502850  10431-3  13164-2 0  9996
2 59678  97.3359 156.4566 0009315 298.3978  61.6359 15.94811787102734
OBJECT D                
1 59813U 24095D   26064.05653770  .00589793  14037-3  17801-2 0  9995
2 59813  97.5303 167.7716 0005260 254.9341 105.1351 15.92155338100156
RUZAEVKA 390 (RS44S)    
1 61766U 24199AH  26064.56015490  .01278622  99584-3  17120-2 0  9998
2 61766  97.2825 306.6088 0002290 166.8560 193.2782 16.06831134118866
SZ-19 DEB               
1 63801U 24194E   26064.57283200  .00696185  29267-3  46469-3 0  9999
2 63801  41.4591 187.7537 0011881  17.2259 342.9001 16.15900285 48555
COSMOS 2591             
1 65267U 25182A   26064.61409288  .00054469  29881-5  13250-3 0  9995
2 65267  96.5950 357.9358 0006756 173.6338 186.5028 15.96371412 31178
COSMOS 2592             
1 65268U 25182B   26064.62976021  .00004342  18609-5  11848-4 0  9994
2 65268  96.5906 357.9096 0007169 168.5536 191.5907 15.96382534 31170
COSMOS 2593             
1 65269U 25182C   26064.58275646  .00023585  20678-5  58016-4 0  9992
2 65269  96.5882 357.8369 0007309 166.2302 193.9177 15.96412483 31169
COSMOS 2594             
1 65270U 25182D   26064.59843458  .00100071  56759-5  24191-3 0  9998
2 65270  96.5907 357.8208 0007038 167.7756 192.3695 15.96393620 31180
ISS OBJECT XK           
1 65731U 98067XK  26064.42288087  .01235340  97089-3  12997-2 0  9993
2 65731  51.6145  68.9863 0004832  74.1567 285.9979 16.09887648 26210
CZ-4B R/B               
1 66989U 25289B   26064.47398500  .05023594  25798-5  57449-3 0  9994
2 66989  97.4965 142.9791 0016712  37.1394 323.1056 16.36471164 13673
STARLINK-36618          
1 67847U 26033AC  26064.58335648 -.01148768  39432-3 -31183-2 0  9995
2 67847  42.9846 294.5746 0002331 267.8079 165.0738 15.93308273  4007
STARLINK-36818          
1 67879U 26035A   26064.58335648 -.01023274  32924-3 -24560-2 0  9996
2 67879  97.2766 356.6033 0001221  99.7840 322.4336 15.96522241  3097
STARLINK-36821          
1 67880U 26035B   26064.58335648 -.01033745  33607-3 -24609-2 0  9995
2 67880  97.2760 356.6065 0001173  99.0825 330.1115 15.96675211  3097
STARLINK-36808          
1 67881U 26035C   26064.58335648 -.01019248  32711-3 -24360-2 0  9997
2 67881  97.2762 356.6044 0001193 102.9903 321.9190 15.96600017  3093
