[{"OBJECT_NAME":"OBJECT B","OBJECT_ID":"2023-104B","EPOCH":"2026-03-05T15:46:54.732288","MEAN_MOTION":15.94251406,"ECCENTRICITY":0.00028279,"INCLINATION":97.2682,"RA_OF_ASC_NODE":153.1541,"ARG_OF_PERICENTER":314.1556,"MEAN_ANOMALY":45.9486,"EPHEMERIS_TYPE":0,"CLASSIFICATION_TYPE":"U","NORAD_CAT_ID":57425,"ELEMENT_SET_NO":999,"REV_AT_EPOCH":14743,"BSTAR":0.00081159686,"MEAN_MOTION_DOT":0.00299771,"MEAN_MOTION_DDOT":3.6745697e-5},{"OBJECT_NAME":"INTUITION-1","OBJECT_ID":"2023-174CW","EPOCH":"2026-03-05T13:46:18.613056","MEAN_MOTION":15.91825053,"ECCENTRICITY":0.00036054,"INCLINATION":97.3762,"RA_OF_ASC_NODE":160.6148,"ARG_OF_PERICENTER":234.8941,"MEAN_ANOMALY":125.1995,"EPHEMERIS_TYPE":0,"CLASSIFICATION_TYPE":"U","NORAD_CAT_ID":58565,"ELEMENT_SET_NO":999,"REV_AT_EPOCH":13022,"BSTAR":0.0013597497,"MEAN_MOTION_DOT":0.00442822,"MEAN_MOTION_DDOT":7.740359e-5},{"OBJECT_NAME":"OBJECT B","OBJECT_ID":"2024-085B","EPOCH":"2026-03-05T10:13:16.209984","MEAN_MOTION":15.94811787,"ECCENTRICITY":0.00093154,"INCLINATION":97.3359,"RA_OF_ASC_NODE":156.4566,"ARG_OF_PERICENTER":298.3978,"MEAN_ANOMALY":61.6359,"EPHEMERIS_TYPE":0,"CLASSIFICATION_TYPE":"U","NORAD_CAT_ID":59678,"ELEMENT_SET_NO":999,"REV_AT_EPOCH":10273,"BSTAR":0.0013164092,"MEAN_MOTION_DOT":0.0050285,"MEAN_MOTION_DDOT":0.00010430557},{"OBJECT_NAME":"OBJECT D","OBJECT_ID":"2024-095D","EPOCH":"2026-03-05T01:21:24.857280","MEAN_MOTION":15.92155338,"ECCENTRICITY":0.00052609,"INCLINATION":97.5303,"RA_OF_ASC_NODE":167.7716,"ARG_OF_PERICENTER":254.9341,"MEAN_ANOMALY":105.1351,"EPHEMERIS_TYPE":0,"CLASSIFICATION_TYPE":"U","NORAD_CAT_ID":59813,"ELEMENT_SET_NO":999,"REV_AT_EPOCH":10015,"BSTAR":0.001780105,"MEAN_MOTION_DOT":0.00589793,"MEAN_MOTION_DDOT":0.0001403731},{"OBJECT_NAME":"RUZAEVKA 390 (RS44S)","OBJECT_ID":"2024-199AH","EPOCH":"2026-03-05T13:26:37.383360","MEAN_MOTION":16.06831134,"ECCENTRICITY":0.00022907,"INCLINATION":97.2825,"RA_OF_ASC_NODE":306.6088,"ARG_OF_PERICENTER":166.856,"MEAN_ANOMALY":193.2782,"EPHEMERIS_TYPE":0,"CLASSIFICATION_TYPE":"U","NORAD_CAT_ID":61766,"ELEMENT_SET_NO":999,"REV_AT_EPOCH":11886,"BSTAR":0.0017119784,"MEAN_MOTION_DOT":0.01278622,"MEAN_MOTION_DDOT":0.00099583875},{"OBJECT_NAME":"SZ-19 DEB","OBJECT_ID":"2024-194E","EPOCH":"2026-03-05T13:44:52.684800","MEAN_MOTION":16.15900285,"ECCENTRICITY":0.00118813,"INCLINATION":41.4591,"RA_OF_ASC_NODE":187.7537,"ARG_OF_PERICENTER":17.2259,"MEAN_ANOMALY":342.9001,"EPHEMERIS_TYPE":0,"CLASSIFICATION_TYPE":"U","NORAD_CAT_ID":63801,"ELEMENT_SET_NO":999,"REV_AT_EPOCH":4855,"BSTAR":0.0004646917,"MEAN_MOTION_DOT":0.00696185,"MEAN_MOTION_DDOT":0.00029266684},{"OBJECT_NAME":"COSMOS 2591","OBJECT_ID":"2025-182A","EPOCH":"2026-03-05T14:44:17.624832","MEAN_MOTION":15.96371412,"ECCENTRICITY":0.0006756,"INCLINATION":96.595,"RA_OF_ASC_NODE":357.9358,"ARG_OF_PERICENTER":173.6338,"MEAN_ANOMALY":186.5028,"EPHEMERIS_TYPE":0,"CLASSIFICATION_TYPE":"U","NORAD_CAT_ID":65267,"ELEMENT_SET_NO":999,"REV_AT_EPOCH":3117,"BSTAR":0.00013249914,"MEAN_MOTION_DOT":0.00054469,"MEAN_MOTION_DDOT":2.98812e-6},{"OBJECT_NAME":"COSMOS 2592","OBJECT_ID":"2025-182B","EPOCH":"2026-03-05T15:06:51.282144","MEAN_MOTION":15.96382534,"ECCENTRICITY":0.00071696,"INCLINATION":96.5906,"RA_OF_ASC_NODE":357.9096,"ARG_OF_PERICENTER":168.5536,"MEAN_ANOMALY":191.5907,"EPHEMERIS_TYPE":0,"CLASSIFICATION_TYPE":"U","NORAD_CAT_ID":65268,"ELEMENT_SET_NO":999,"REV_AT_EPOCH":3117,"BSTAR":1.1848448e-5,"MEAN_MOTION_DOT":4.342e-5,"MEAN_MOTION_DDOT":1.860934e-6},{"OBJECT_NAME":"COSMOS 2593","OBJECT_ID":"2025-182C","EPOCH":"2026-03-05T13:59:10.158144","MEAN_MOTION":15.96412483,"ECCENTRICITY":0.00073091,"INCLINATION":96.5882,"RA_OF_ASC_NODE":357.8369,"ARG_OF_PERICENTER":166.2302,"MEAN_ANOMALY":193.9177,"EPHEMERIS_TYPE":0,"CLASSIFICATION_TYPE":"U","NORAD_CAT_ID":65269,"ELEMENT_SET_NO":999,"REV_AT_EPOCH":3116,"BSTAR":5.8015605e-5,"MEAN_MOTION_DOT":0.00023585,"MEAN_MOTION_DDOT":2.067833e-6},{"OBJECT_NAME":"COSMOS 2594","OBJECT_ID":"2025-182D","EPOCH":"2026-03-05T14:21:44.747712","MEAN_MOTION":15.9639362,"ECCENTRICITY":0.00070388,"INCLINATION":96.5907,"RA_OF_ASC_NODE":357.8208,"ARG_OF_PERICENTER":167.7756,"MEAN_ANOMALY":192.3695,"EPHEMERIS_TYPE":0,"CLASSIFICATION_TYPE":"U","NORAD_CAT_ID":65270,"ELEMENT_SET_NO":999,"REV_AT_EPOCH":3118,"BSTAR":0.00024191156,"MEAN_MOTION_DOT":0.00100071,"MEAN_MOTION_DDOT":5.675891e-6},{"OBJECT_NAME":"ISS OBJECT XK","OBJECT_ID":"1998-067XK","EPOCH":"2026-03-05T10:08:56.907168","MEAN_MOTION":16.09887648,"ECCENTRICITY":0.00048324,"INCLINATION":51.6145,"RA_OF_ASC_NODE":68.9863,"ARG_OF_PERICENTER":74.1567,"MEAN_ANOMALY":285.9979,"EPHEMERIS_TYPE":0,"CLASSIFICATION_TYPE":"U","NORAD_CAT_ID":65731,"ELEMENT_SET_NO":999,"REV_AT_EPOCH":2621,"BSTAR":0.0012996551,"MEAN_MOTION_DOT":0.0123534,"MEAN_MOTION_DDOT":0.00097089111},{"OBJECT_NAME":"CZ-4B R/B","OBJECT_ID":"2025-289B","EPOCH":"2026-03-05T11:22:32.304000","MEAN_MOTION":16.36471164,"ECCENTRICITY":0.00167122,"INCLINATION":97.4965,"RA_OF_ASC_NODE":142.9791,"ARG_OF_PERICENTER":37.1394,"MEAN_ANOMALY":323.1056,"EPHEMERIS_TYPE":0,"CLASSIFICATION_TYPE":"U","NORAD_CAT_ID":66989,"ELEMENT_SET_NO":999,"REV_AT_EPOCH":1367,"BSTAR":0.00057449167,"MEAN_MOTION_DOT":0.05023594,"MEAN_MOTION_DDOT":2.579765e-6},{"OBJECT_NAME":"STARLINK-36618","OBJECT_ID":"2026-033AC","EPOCH":"2026-03-05T14:00:01.999872","MEAN_MOTION":15.93308273,"ECCENTRICITY":0.00023319,"INCLINATION":42.9846,"RA_OF_ASC_NODE":294.5746,"ARG_OF_PERICENTER":267.8079,"MEAN_ANOMALY":165.0738,"EPHEMERIS_TYPE":0,"CLASSIFICATION_TYPE":"U","NORAD_CAT_ID":67847,"ELEMENT_SET_NO":999,"REV_AT_EPOCH":400,"BSTAR":-0.003118323,"MEAN_MOTION_DOT":-0.01148768,"MEAN_MOTION_DDOT":0.00039432147},{"OBJECT_NAME":"STARLINK-36818","OBJECT_ID":"2026-035A","EPOCH":"2026-03-05T14:00:01.999872","MEAN_MOTION":15.96522241,"ECCENTRICITY":0.00012216,"INCLINATION":97.2766,"RA_OF_ASC_NODE":356.6033,"ARG_OF_PERICENTER":99.784,"MEAN_ANOMALY":322.4336,"EPHEMERIS_TYPE":0,"CLASSIFICATION_TYPE":"U","NORAD_CAT_ID":67879,"ELEMENT_SET_NO":999,"REV_AT_EPOCH":309,"BSTAR":-0.0024560068,"MEAN_MOTION_DOT":-0.01023274,"MEAN_MOTION_DDOT":0.00032924148},{"OBJECT_NAME":"STARLINK-36821","OBJECT_ID":"2026-035B","EPOCH":"2026-03-05T14:00:01.999872","MEAN_MOTION":15.96675211,"ECCENTRICITY":0.00011737,"INCLINATION":97.276,"RA_OF_ASC_NODE":356.6065,"ARG_OF_PERICENTER":99.0825,"MEAN_ANOMALY":330.1115,"EPHEMERIS_TYPE":0,"CLASSIFICATION_TYPE":"U","NORAD_CAT_ID":67880,"ELEMENT_SET_NO":999,"REV_AT_EPOCH":309,"BSTAR":-0.0024608614,"MEAN_MOTION_DOT":-0.01033745,"MEAN_MOTION_DDOT":0.00033606669},{"OBJECT_NAME":"STARLINK-36808","OBJECT_ID":"2026-035C","EPOCH":"2026-03-05T14:00:01.999872","MEAN_MOTION":15.96600017,"ECCENTRICITY":0.00011937,"INCLINATION":97.2762,"RA_OF_ASC_NODE":356.6044,"ARG_OF_PERICENTER":102.9903,"MEAN_ANOMALY":321.919,"EPHEMERIS_TYPE":0,"CLASSIFICATION_TYPE":"U","NORAD_CAT_ID":67881,"ELEMENT_SET_NO":999,"REV_AT_EPOCH":309,"BSTAR":-0.002435989,"MEAN_MOTION_DOT":-0.01019248,"MEAN_MOTION_DDOT":0.00032711475}]
